VELOX-I                 
1 40057U 14034E   26068.95949119  .00006179  00000+0  54397-3 0  9990
2 40057  98.2625 328.3713 0006060 237.6745 122.3888 14.96870815631756
TORO                    
1 60530U 24149BQ  26068.79501872  .00002725  00000+0  24799-3 0  9994
2 60530  97.6844 145.3205 0001019  86.2634 273.8704 14.96013579 85092
