[{"OBJECT_NAME":"TORO","OBJECT_ID":"2024-149BQ","EPOCH":"2026-03-09T19:04:49.617408","MEAN_MOTION":14.96013579,"ECCENTRICITY":0.00010195,"INCLINATION":97.6844,"RA_OF_ASC_NODE":145.3205,"ARG_OF_PERICENTER":86.2634,"MEAN_ANOMALY":273.8704,"EPHEMERIS_TYPE":0,"CLASSIFICATION_TYPE":"U","NORAD_CAT_ID":60530,"ELEMENT_SET_NO":999,"REV_AT_EPOCH":8509,"BSTAR":0.00024799107,"MEAN_MOTION_DOT":2.725e-5,"MEAN_MOTION_DDOT":0},{"OBJECT_NAME":"VELOX-I","OBJECT_ID":"2014-034E","EPOCH":"2026-03-09T23:01:40.038816","MEAN_MOTION":14.96870815,"ECCENTRICITY":0.00060607,"INCLINATION":98.2625,"RA_OF_ASC_NODE":328.3713,"ARG_OF_PERICENTER":237.6745,"MEAN_ANOMALY":122.3888,"EPHEMERIS_TYPE":0,"CLASSIFICATION_TYPE":"U","NORAD_CAT_ID":40057,"ELEMENT_SET_NO":999,"REV_AT_EPOCH":63175,"BSTAR":0.00054396772,"MEAN_MOTION_DOT":6.179e-5,"MEAN_MOTION_DDOT":0}]
